Title,Image,Description,Address,Zip,City,Area,Country,Slogan,Holes,Parking,since,video,Detail Url,Website,E-mail
ALS fodboldgolf,https://fodboldgolf.dk/wp-content/uploads/2020/09/fodboldgolf-758x564.jpg,Flot 18 hullers bane,Nordborgvej 120,,6430 Nordborg,Sydjylland,Danmark,Sjov fodboldgolfbane,18 hullers bane,"Ja, gratis",2020,,https://fodboldgolf.dk/baner/als-fodboldgolf/,,
As Vig fodboldgolf,https://fodboldgolf.dk/wp-content/uploads/2020/10/as-vig-fodboldgolf-758x450.jpg,Fodboldgolfbane på 18 huller,Åstrupvej 11,,7130 Juelsminde,Østjylland,Danmark,Sjov på Jylland,18 hullers bane,"Ja, gratis",2018,,https://fodboldgolf.dk/baner/as-vig-fodboldgolf/,,
Ballum fodboldgolf,https://fodboldgolf.dk/wp-content/uploads/2020/10/ballum-fodboldgolf-758x564.jpg,Sjov 18 hullers bane i Ballum,Gaden 37a,,6261 Bredebro,Vestjylland,Danmark,Sjov bane,18 hullers bane,"Ja, gratis",2010,,https://fodboldgolf.dk/baner/ballum-fodboldgolf/,https://ballumfodboldgolf.dk/,
Blåvandshuk fodboldgolf,https://fodboldgolf.dk/wp-content/uploads/2020/10/blaavandshuk-fodboldgolf-758x513.jpg,Flot 18 huller fodboldgolfbane,Skallingevej 5,,6857 Blåvand,Vestjylland,Danmark,Flot bane,18 hullers bane,"Ja, gratis",2018,,https://fodboldgolf.dk/baner/blaavandshuk-fodboldgolf/,,
Bramdrupdam fodboldgolf,https://fodboldgolf.dk/wp-content/uploads/2020/10/Bramdrupdam-fodboldgolf-758x564.jpg,2 x 18-hullers fodboldgolf,Skovæblevej 3,,6000 Kolding,Sydjylland,Danmark,Sjov i Jylland,18 hullers bane,"Ja, gratis",2013,,https://fodboldgolf.dk/baner/bramdrupdam-fodboldgolf/,,
Bøsøre fodboldgolf,https://fodboldgolf.dk/wp-content/uploads/2020/09/fodboldgolf-758x564.jpg,Underholdende fodboldgolf i Bøsøre,Bøsørevej 16,,5874 Hesselager,Fyn,Danmark,Fodboldgolf på Fyn,18 hullers bane,"Ja, gratis",2010,,https://fodboldgolf.dk/baner/boesoere-fodboldgolf/,,
Ebeltoft fodboldgolf,https://fodboldgolf.dk/wp-content/uploads/2020/10/ebeltoft-fodboldgolf-758x451.jpg,"Udfordrende, anderledes, sjov, og fantastisk udsigt.",Mølbjergvej 6,,8400 Ebeltoft,Østjylland,Danmark,Udfordrende bane,18 hullers bane,"Ja, gratis",2013,,https://fodboldgolf.dk/baner/ebeltoft-fodboldgolf/,https://ebeltoft-fodboldgolf.dk/,
Ejsing Fodboldgolfcenter,https://fodboldgolf.dk/wp-content/uploads/2020/10/ejsingfodboldgof2-758x530.jpg,"Vi har Danmarks bedste udsigt fra begge baneanlæg over Venø bugt. Kom og oplev sjov med bold for alle aldre og hele familien. Priserne er voksne 100 kr og børn 50 kr. Vi har åbent alle dage fra  09:00 – 21:00.

Vi har masser af forskellige faciliteter som f.eks. gratis Wi-fi, trækvogne, legeplads, grill, borde & bænke og bålplads. Det er tilladt at have hunde med i snor. Du kan betale kontant og mobilepay.

Banerekorden for bane A er 49 skud – Banerekorden for bane B er 58 skud. Husk at give besked til banen, hvis du slår rekorden.  Banerne har mange sjove forhindringer og flere hold-in-one huller og det længeste hul er 105 meter.

Har du spørgsmål, kan du læse mere på vores hjemmeside eller vores facebookside. Du kan også ringe på telefon 40 95 69 95

Vi laver også firma arrangementer og  fødselsdage, så hvis du ønsker et sjovt og anderledes arrangement, så kontakt os for flere informationer.",Ejsingholmvej 16,,7830 Vinderup,Midtjylland,Danmark,To sjove og udfordrende baner,36 hullers bane,"Ja, gratis",2010,,https://fodboldgolf.dk/baner/ejsing-fodboldgolf/,https://www.ejsingfodboldgolf.dk/,
Englykke fodboldgolf,https://fodboldgolf.dk/wp-content/uploads/2020/10/englykke-fodboldgolf-758x564.jpg,Sjov fodboldgolfbane på 18 huller,Ho Bugt Vej 19,,6852 Billum,Vestjylland,Danmark,Udfordrende bane,18 hullers bane,"Ja, gratis",2010,,https://fodboldgolf.dk/baner/englykke-fodboldgolf/,,
Fanø fodboldgolf,https://fodboldgolf.dk/wp-content/uploads/2020/10/fanoe-fodboldgolf-758x533.jpg,Udfordrende bane på Fanø,Postvejen 7b,,6720 Fanø,Vestjylland,Danmark,Fodboldgolf i Jylland,18 hullers bane,"Ja, gratis",2013,,https://fodboldgolf.dk/baner/fanoe-fodboldgolf/,https://www.fanoe-fodboldgolf.dk/,
Filskov fodboldgolf,https://fodboldgolf.dk/wp-content/uploads/2020/10/filskov-fodboldgolf-758x564.jpg,Sjov fodboldgolfbane på 18 huller,Hjortlundvej 1D-E,,7200 Grindsted,Sydjylland,Danmark,Udfordrende 18 hullers,18 hullers bane,"Ja, gratis",2015,,https://fodboldgolf.dk/baner/filskov-fodboldgolf/,,
Fodboldgolf Bornholm,https://fodboldgolf.dk/wp-content/uploads/2020/10/fodboldgolf-bornholm.jpg,Danmarks kønneste og billigste bane,Kattesletsvejen 5,,3730 Nexø,Bornholm,Danmark,Fodboldgolf på Bornholm,18 hullers bane,"Ja, gratis",2010,,https://fodboldgolf.dk/baner/fodboldgolf-bornholm/,,
Fodboldgolf hos Adventure Park,https://fodboldgolf.dk/wp-content/uploads/2020/10/adventure-fodboldgolf-758x564.jpg,9 hullers fodboldgolfbane i Ringkøbing,Søtangevej 1,,6950 Ringkøbing,Vestjylland,Danmark,Sjov i Ringkøbing,9 hullers bane,"Ja, gratis",2010,https://www.youtube.com/embed/konwhhQJr-s?feature=oembed,https://fodboldgolf.dk/baner/adventure-park/,,
Fonagergård fodboldgolf,https://fodboldgolf.dk/wp-content/uploads/2020/10/fonagergaard-fodboldgolf-758x450.jpg,Spændende 27 huller fodboldgolf i Jylland. En 18 huller bane og en teknisk lidt sværere bane med 9 huller.,Klejnstrupvej 5,,7550 Sørvad,Midtjylland,Danmark,Flot bane,27 hullers bane,"Ja, gratis",2010,https://www.youtube.com/embed/fjZZFYrxiUU?feature=oembed,https://fodboldgolf.dk/baner/fonagergaard-fodboldgolf/,https://fonagergaard.dk/,
Foulom fodboldgolf,https://fodboldgolf.dk/wp-content/uploads/2020/10/Foulum-Fodboldgolf-758x564.jpg,Interessant 18 hullers,Burrehøjvej 21,,8830 Tjele,Midtjylland,Danmark,Flot bane,18 hullers bane,"Ja, gratis",2012,,https://fodboldgolf.dk/baner/foulom-fodboldgolf/,https://foulumfodboldgolf.dk/,
Frederikssund fodboldgolf,https://fodboldgolf.dk/wp-content/uploads/2020/09/fodboldgolf-758x564.jpg,Sjov fodboldgolfbane i Frederikssund,Sigerslevvestvej 13,,3600 Frederikssund,Nordsjælland,Danmark,Fodboldgolf på Sjælland,18 hullers bane,"Ja, gratis",,,https://fodboldgolf.dk/baner/frederikssund-fodboldgolf/,https://frederikssundfodboldgolf.dk/,
Freys fodboldgolf,https://fodboldgolf.dk/wp-content/uploads/2020/10/freys-fodboldgolf-758x534.jpg,Sjov 18 hullers fodboldgolfbane,Århusvej 278,,8570 Trustrup,Østjylland,Danmark,Spændende bane,18 hullers bane,"Ja, gratis",2006,,https://fodboldgolf.dk/baner/freys-fodboldgolf/,https://www.freysplanteskole.dk/freys-fodboldgolf,
Friluftscenter Sprækkebjerg,https://fodboldgolf.dk/wp-content/uploads/2020/10/Friluftscenter-Spraekkebjerg3-758x564.jpg,"Fodboldgolf på Friluftscenter Sprækkebjerg spilles på en af Danmarks bedste baner der tæller 18 huller og fylder 10 tønder land, der spilles i smukke grønne omgivelser i både skov og på åben bane.

Vi har lagt stor vægt på kreative baner, som kan udfordre de fleste, og der bliver taget højde for individuelt niveau. Spillet er for alle, og uanset om der ønskes skarp konkurrence eller ren hygge så kan ønskerne opfyldes på banen.

Her er altid en munter og glad stemning i en afslappet atmosfære og ofte bliver fodboldgolf brugt som afslutning på en aktiv dag efter en eller flere af vores andre aktiviteter f.eks. paintball, rappelling, bueskydning eller forhindringsbane.

Åbningstider: Vi har åben alle dage – tjek vores Friluftcenter.dk for præcise åbningstider eller se mere på Facebook  og Instagram

Priser: Voksne: 100,- kr. Børn under 14 år: 75,- kr. – I kan betale med kontant og mobilepay.

Vi tilbyder firma arrangementer og fødselsdage, kontakt Thomas på friluftscenter@gmail.com eller på telefon 40 34 93 34

Banerekord er 72 spark og der er mulighed for hole-in-one på flere af banerne

Vi har trækvogne som I kan låne, og vi har borde & bænke, så I kan hygge efter nogle sjove aktive timer.",Farrevej 20,,8450 Hammel,Østjylland,Danmark,Teknisk og kreative baner med individuelt niveau,18 hullers bane,"Ja, gratis",2006,,https://fodboldgolf.dk/baner/spraekkebjerg-fodboldgolf/,,
Fun CPH fodboldgolf,https://fodboldgolf.dk/wp-content/uploads/2020/10/fun-cph-758x503.jpg,Sjov fodboldgolfbane i Storkøbenhavn,Surferstien,,2300 Kbh S,Storkøbenhavn,Danmark,Sjov i København,9 hullers bane,Ja,2016,,https://fodboldgolf.dk/baner/fun-cph-fodboldgolf/,,
Givskud fodboldgolf,https://fodboldgolf.dk/wp-content/uploads/2020/10/givskud-fodboldgolf-758x564.jpg,Sjov 18 hullers fodboldgolf,Engmarksvej 2,,7323 Give,Sydjylland,Danmark,Udfordrende fodboldgolf,18 hullers bane,"Ja, gratis",2008,https://www.youtube.com/embed/U43LgZxDYTE?start=1&amp;feature=oembed,https://fodboldgolf.dk/baner/givskud-fodboldgolf/,,
Gludsted fodboldgolf,https://fodboldgolf.dk/wp-content/uploads/2020/10/Gludsted-Fodboldgolf4.jpg,"Gludsted Fodboldgolf har noget for enhver smag. Du kan prøve vores smukke 18-hullers fodboldgolfbane, som i sæsonen 2021 har fået renoveret forhindringerne, så de står knivskarpe. Bagefter kan du låne et af vores havespil, putting green, beachvolleybanen eller den aflukkede fodboldbane, så alle får en chance for at vinde. Vi har et stort telt til spisning og uden for står grill klar – bare du selv husker kullet. Og skulle du få brug for en tissepause, benytter du bare vores fine toiletvogn. Kom og oplev lidt af det hele hos Gludsted Fodboldgolf.

Vi har åbent alle dage fra 8-22. Det er tilladt at have hund med, sålænge de er i snor. I kan også låne en gratis trækvogn.

Det koster 100 kr. for voksne og 50 kr. for børn, og I kan betale med Mobilepay og kontanter.

Vi tilbyder også firma arrangementer og fødselsdagefester, kontakt os for yderligere informationer.

Du kan læse mere om vores skønne bane på vores hjemmeside, og hvis du har spørgsmål, kan du kontakte os via Facebookside eller på tlf. 26 14 58 58",Hjøllundvej 8B,,7361 Ejstrupholm,Midtjylland,Danmark,Danmarks måske smukkeste fodboldgolfbane,18 hullers bane,"Ja, gratis",2007,,https://fodboldgolf.dk/baner/gludsted-fodboldgolf/,,
Golf & Fun Park,https://fodboldgolf.dk/wp-content/uploads/2020/10/fodboldgolf-lolland.jpg,Underholdende 18 hullers bane,Bøtø Ringvej 2 E,,4873 Væggerløse,Lolland / Falster,Danmark,Sjov i Væggerløse,18 hullers bane,"Ja, gratis",2005,,https://fodboldgolf.dk/baner/golf-fun-park/,,
Gudhjem fodboldgolf,https://fodboldgolf.dk/wp-content/uploads/2020/10/gudhjem-fodboldgolfbane-758x564.jpg,Sjov 18 hullers på Bornholm,Spellingevej 1,,3760 Gudhjem,Bornholm,Danmark,Sjov i Gudhjem,18 hullers bane,"Ja, gratis",2008,https://www.youtube.com/embed/tb2fDF8-qco?feature=oembed,https://fodboldgolf.dk/baner/gudhjem-fodboldgolf/,,
Hejnsvig fodboldgolf,https://fodboldgolf.dk/wp-content/uploads/2020/10/hejnsvig-fodboldgolf.jpg,18 hullers fodboldgolfbane,Fugdalvej 4,,7250 Hejnsvig,Sydjylland,Danmark,Underholdning i Hejnsvig,18 hullers bane,"Ja, gratis",2009,,https://fodboldgolf.dk/baner/hejnsvig-fodboldgolf/,https://www.hejnsvig-fodboldgolf.dk/,
Hejsager fodboldgolf,https://fodboldgolf.dk/wp-content/uploads/2020/10/hejsager-fodboldgolg-758x564.jpg,Udfordrende 18 hullers bane på Jylland,Dalgårdsvej 34,,6100 Haderslev,Østjylland,Danmark,Sjov i Jylland,18 hullers bane,"Ja, gratis",2016,,https://fodboldgolf.dk/baner/hejsager-fodboldgolf/,,
Herning fodboldgolf,https://fodboldgolf.dk/wp-content/uploads/2020/09/fodboldgolf-758x564.jpg,Flot bane i smukke omgivelser,Linåvej 37,,7451 Sunds,Midtjylland,Danmark,Sjov i Herning,18 hullers bane,"Ja, gratis",2018,,https://fodboldgolf.dk/baner/herning-fodboldgolf/,,
Himmerland fodboldgolf,https://fodboldgolf.dk/wp-content/uploads/2020/10/himmerland-fodboldgolf.jpg,Fed 18 hullers bane,Mejlbyvej 125,,9610 Nørager,Nordjylland,Danmark,Sjov i Jylland,18 hullers bane,"Ja, gratis",2008,https://www.youtube.com/embed/oDAs6cSCz68?feature=oembed,https://fodboldgolf.dk/baner/himmerland-fodboldgolf/,https://himmerland-fodboldgolf.dk/,
Hårlev fodboldgolf,https://fodboldgolf.dk/wp-content/uploads/2020/09/fodboldgolf-758x564.jpg,Udfordrende 18 hullers fodboldgolfbane i Hårlev,Lerskovvej 13,,4652 Hårlev,Sydsjælland,Danmark,Sjov i Hårlev,18 hullers bane,"Ja, gratis",2006,,https://fodboldgolf.dk/baner/haarlev-fodboldgolf/,,
Jammerbugtens Fodboldgolf,,,,,,,,,,,,,,http://www.jbfodboldgolf.dk/,
Kildedal fodboldgolf,https://fodboldgolf.dk/wp-content/uploads/2020/10/kildedalevent-fodboldgolf.jpg,Interessant 18 hullers fodboldgolfbane i Måløv,Kildedalsvej 15,,2760 Måløv,Nordsjælland,Danmark,Fodboldgolf på Sjælland,18 hullers bane,"Ja, gratis",2011,,https://fodboldgolf.dk/baner/maaloev-fodboldgolf/,,
Kolding fodboldgolf,https://fodboldgolf.dk/wp-content/uploads/2020/10/kolding-fodboldgolf-758x450.jpg,Fed 18 hullers fodboldgolfbane,Hejls Landevej 83,,6094 Hejls,Sydjylland,Danmark,Fodboldgold i Jylland,18 hullers bane,"Ja, gratis",2012,,https://fodboldgolf.dk/baner/kolding-fodboldgolf/,,
Kragerup Gods – Fodboldgolf,https://fodboldgolf.dk/wp-content/uploads/2020/10/kragerup-fodboldgolf-758x564.jpg,"På Kragerup Gods har vi en stor, 18-hullers fodboldgolfbane, med i alt 2 sværhedsgrader. Her kan hele familien være med på den smukkeste fodboldgolfbane.",Kragerupgårdsvej 33,,4291Ruds Vedby,Vestsjælland,Danmark,Meget flot bane,18 hullers bane,"Ja, gratis",2014,https://www.youtube.com/embed/u9Nw4K8R7sY?feature=oembed,https://fodboldgolf.dk/baner/kragerup-fodboldgolf/,,
Langelands fodboldgolf,https://fodboldgolf.dk/wp-content/uploads/2020/10/langelandsfodbold-758x377.jpg,"Flot, teknisk, billig, og sjov 18 hullers fodboldgolfbane på Langeland",Langøvej 6,,5932 Humble,Øerne,Danmark,"Flot, teknisk, og sjov",18 hullers bane,"Ja, gratis",2010,,https://fodboldgolf.dk/baner/langelands-fodboldgolf/,,
Langesø fodboldgolf,https://fodboldgolf.dk/wp-content/uploads/2020/09/fodboldgolf-758x564.jpg,Flot 18 hullers bane i smukke omgivelser,Langesøvej 139,,5462 Morud,Fyn,Danmark,Flot 18 hullers,18 hullers bane,"Ja, gratis",2017,,https://fodboldgolf.dk/baner/langesoe-fodboldgolf/,,
Loch Nees fodboldgolf,https://fodboldgolf.dk/wp-content/uploads/2020/10/loch-nees-fodboldgolf-758x450.jpg,"Udfordrende, overskuelig, brede baner, til hele familien",Sandbækvej 9,,7570 Vemb,Vestjylland,Danmark,Udfordrende baner,18 hullers bane,"Ja, gratis",2013,https://www.youtube.com/embed/lC5xEVBvfIk?feature=oembed,https://fodboldgolf.dk/baner/loch-nees-fodboldgolf/,,
Løgstør fodboldgolf,https://fodboldgolf.dk/wp-content/uploads/2020/10/loegstoer-fodboldgolf-758x516.jpg,Underholdende 18 hullers bane,Engelstrupvej 20,,9670 Løgstør,Nordjylland,Danmark,Sjov og udfordrende bane,18 hullers bane,"Ja, gratis",2010,https://www.youtube.com/embed/U43LgZxDYTE?feature=oembed,https://fodboldgolf.dk/baner/loegstoer-fodboldgolf/,,
Løkken fodboldgolf,https://fodboldgolf.dk/wp-content/uploads/2020/09/fodboldgolf-758x564.jpg,Sjov 18 huller fodboldgolfbane,Trudslevvej 87,,9480 Løkken,Nordjylland,Danmark,Sjov bane i Nordjylland,18 hullers bane,"Ja, gratis",2011,,https://fodboldgolf.dk/baner/loekken-fodboldgolf/,https://www.loekkenfodboldgolf.dk/fo/,
Middelfart fodboldgolf,https://fodboldgolf.dk/wp-content/uploads/2020/09/fodboldgolf-758x564.jpg,Flot 18 hullers ved Middelfart på Fyn.,Staurby Skovvej 25,,5500 Middelfart,Fyn,Danmark,Sjov i Middelfart,18 hullers bane,"Ja, gratis",2007,,https://fodboldgolf.dk/baner/middelfart-fodboldgolf/,,
Midtjydsk fodboldgolf,https://fodboldgolf.dk/wp-content/uploads/2020/09/fodboldgolf-758x564.jpg,18 hullers i flotte omgivelser,Munklindevej 39,,7441 Bording,Midtjylland,Danmark,Flot 18 hullers,18 hullers bane,"Ja, gratis",2006,,https://fodboldgolf.dk/baner/midtjysk-fodboldgolf/,,
Møn fodboldgolf,https://fodboldgolf.dk/wp-content/uploads/2020/09/fodboldgolf-758x564.jpg,Lækker 18 hullers fodboldgolfbane,Grønsundvej 304,,4792 Askeby,Sydsjælland,Danmark,Lækker 18 hullers,18 hullers bane,"Ja, gratis",2017,,https://fodboldgolf.dk/baner/moen-fodboldgolf/,,
Naturligleg.dk fodboldgolf,https://fodboldgolf.dk/wp-content/uploads/2020/10/naturligleg.dk-fodboldgolf-758x550.jpg,Skæg 18 hullers bane,Regelvej 3,,9293 Kongerslev,Nordjylland,Danmark,Fodboldgolf i Nordjylland,18 hullers bane,"Ja, gratis",2017,,https://fodboldgolf.dk/baner/naturligleg-fodboldgolf/,,
Nordjysk Fodbold Golf,https://fodboldgolf.dk/wp-content/uploads/2020/09/nordjysk-fodboldgolf-758x499.jpg,"Nordjyllands fedeste fodboldgolf anlæg og der er mulighed for mange timers underholdning sammen med familie, venner eller firma arrangementer.",Engvej 39,,9430 Vadum,Nordjylland,Danmark,Sjov i Nordjylland,18 hullers bane,Gratis,2008,https://www.youtube.com/embed/YwVR41Qvvug?feature=oembed,https://fodboldgolf.dk/baner/nordjysk-fodbold-golf/,https://nordjyskfodboldgolf.dk/,
Nors fodboldgolf,https://fodboldgolf.dk/wp-content/uploads/2020/10/nors-fodboldgolf-758x564.jpg,Fed 18 hullers fodboldgolfbane,Norsvej 92,,7700 Thisted,Nordjylland,Danmark,Sjov bane,18 hullers bane,"Ja, gratis",2013,,https://fodboldgolf.dk/baner/nors-fodboldgolf/,,
Nymarksminde fodboldgolf,https://fodboldgolf.dk/wp-content/uploads/2020/10/nymarksminde-fodboldgolf.jpg,"Sjov bane, og adgang til bondegårdsdyr",Vestvej 91,,9310 Vodskov,Nordjylland,Danmark,Sjov bane 18 huller,18 hullers bane,"Ja, gratis",2010,,https://fodboldgolf.dk/baner/nymarksminde-fodboldgolf/,,
Odense fodboldgolf,https://fodboldgolf.dk/wp-content/uploads/2020/09/fodboldgolf-758x564.jpg,Sjov bane i Odense,Bøllemosegyden 144,,5491 Blommenslyst,Fyn,Danmark,Underholdning i Odense,18 hullers bane,"Ja, gratis",2007,,https://fodboldgolf.dk/baner/odense-fodboldgolf/,,
Odsherred eventpark,https://fodboldgolf.dk/wp-content/uploads/2020/09/fodboldgolf-758x564.jpg,Underholdende fodboldgolfbane på 18 huller,Nykøbingvej 158,,4571 Grevinge,Vestsjælland,Danmark,Underholdning i Odsherred,18 hullers bane,"Ja, gratis",2013,,https://fodboldgolf.dk/baner/odsherred-eventpark/,http://www.odsherred-fodboldgolf.dk/,
Odsherred Fodboldgolf,https://fodboldgolf.dk/wp-content/uploads/2020/10/odsherred-fodboldgolf-758x564.jpg,18 hullers unik fodboldgolfbane med udsigt over den meget smukke Lammefjord. Muligvis Danmarks flotteste fodboldgolfbane.,Nykøbingvej 158,,4571 Grevinge,Vestsjælland,Danmark,Sjov i Odsherred,18 hullers bane,Ja,2018,https://www.youtube.com/embed/24GHB53TLiw?feature=oembed,https://fodboldgolf.dk/baner/odsherred-fodboldgolf/,,
Oksenvad fodboldgolf,https://fodboldgolf.dk/wp-content/uploads/2020/10/oksenvad-fodboldgolf-758x564.jpg,Fed 18 hullers bane,Øster Lindetvej 5,,6560 Sommersted,Sydjylland,Danmark,Fed 18 hullers,18 hullers bane,"Ja, gratis",2019,,https://fodboldgolf.dk/baner/oksenvad-fodboldgolf/,,
Oplev parken fodboldgolf,https://fodboldgolf.dk/wp-content/uploads/2020/10/oplev-parken-758x564.jpg,Spændende bane på 18 huller,Korsvej 4,,8530 Hjortshøj,Østjylland,Danmark,Sjov nær Århus,18 hullers bane,"Ja, gratis",2011,,https://fodboldgolf.dk/baner/oplev-parken-fodboldgolf/,,
Silkeborg fodboldgolf,https://fodboldgolf.dk/wp-content/uploads/2020/09/fodboldgolf-758x564.jpg,Flot 18 hullers bane i Silkeborg,Sepstrupvej 36,,8653 Them,Midtjylland,Danmark,Fodboldgolf i Silkeborg,18 hullers bane,"Ja, gratis",2007,,https://fodboldgolf.dk/baner/silkeborg-fodboldgolf/,,
Skagen Fodboldgolf,https://fodboldgolf.dk/wp-content/uploads/2020/10/fodboldgolf-skagen-758x564.jpg,"Sjov fodboldgolfbane i Skagen, bestående af 18 huller med mange forskellige udfordringer af forskellig karakter.",Nedre Mosevej 108,,9990 Skagen,Nordjylland,Danmark,Skagen tema i flot natur,18 hullers bane,GRATIS,2016,https://www.youtube.com/embed/W-ZLTy2Hlvk?feature=oembed,https://fodboldgolf.dk/baner/skagen-fodboldgolf/,,
Skejby fodboldgolf,https://fodboldgolf.dk/wp-content/uploads/2020/10/skejby-fodboldgolf-758x564.jpg,Underholdende bane på 18 huller,Topkærvej 7,,8200 Aarhus N,Østjylland,Danmark,Underholdende 18 hullers,18 hullers bane,"Ja, gratis",2019,https://www.youtube.com/embed/uceW29dFAp0?feature=oembed,https://fodboldgolf.dk/baner/skejby-fodboldgolf/,,
Soccer World fodboldgolf,https://fodboldgolf.dk/wp-content/uploads/2020/10/fodboldgolf-soccerworld.dk_-758x564.jpg,Sjov og spændende 18 hullers bane,Nymindegabvej 200,,6855 Outrup,Vestjylland,Danmark,Sjov i Jylland,18 hullers bane,"Ja, gratis",2016,,https://fodboldgolf.dk/baner/soccer-world-fodboldgolf/,https://www.soccerworld.dk/,
Sunds Fodboldgolf,,,,,,,,,,,,,,https://www.herningfodboldgolf.dk/,
Til tops fodboldgolf,https://fodboldgolf.dk/wp-content/uploads/2020/09/fodboldgolf-758x564.jpg,Sjov park med fodboldgolf på 18 huller,Brommevej 10,,3760 Gudhjem,Bornholm,Danmark,Sjov på Bornholm,18 hullers bane,"Ja, gratis",2016,,https://fodboldgolf.dk/baner/til-tops-fodboldgolf/,,
Uge Lystfiskeri Camping og Fodboldgolf,https://fodboldgolf.dk/wp-content/uploads/2020/10/uge-fodboldgolf1-758x564.jpg,"Banen er på sandjord og dermed tør og klar til at spille på. Banen ligger i forbindelse med camping og lystfiskeri. Der er mulighed for at grille overdækket borde bænke side plads. Priserne er 100 for voksne og 50 kr. for børn. Vi har åbent alle dage fra morgen til aften, idet der er mulighed for betaling via. mobilepay eller kontant. Det er tilladt at have hunde med i snor.

Der er mulighed for at købe is, og vi har mange forskellige faciliteter som f.eks. gratis WI-FI, trækvogn, overnatning, legeplads, hoppeborg, handicap toilet, bordtennis, grill, borde & bænke og bålplads.

Har du spørgsmål, kan du læse mere på vores hjemmeside eller vores facebookside. Du kan også ringe på telefon 74 64 44 98

Vi laver også firma arrangementer og  fødselsdage, så hvis du ønsker et sjovt og anderledes arrangement, så kontakt os for flere informationer.",Åbenråvej 95,,6360 Tinglev,Sydjylland,Danmark,Sjov i Sønderjylland,18 hullers bane,"Ja, gratis",2016,https://www.youtube.com/embed/BrVxAjzi23I?feature=oembed,https://fodboldgolf.dk/baner/uge-fodboldgolf/,https://uge-lystfiskeri.dk/fodboldgolf/,
Ulbjerg fodboldgolf,https://fodboldgolf.dk/wp-content/uploads/2020/09/fodboldgolf-758x564.jpg,Flot 18 hullers bane i Jylland,Løgstørvej 68,,8832 Skals,Midtjylland,Danmark,Flot 18 hullers,18 hullers bane,"Ja, gratis",2010,,https://fodboldgolf.dk/baner/ulbjerg-fodboldgolf/,https://ulbjerg-fodboldgolf.dk/,
Vallensbæk fodboldgolf,https://fodboldgolf.dk/wp-content/uploads/2020/09/fodboldgolf-758x564.jpg,Sjov fodboldgolfbane i Vallensbæk,Brøndbyvej 170,,2625 Vallensbæk,Storkøbenhavn,Danmark,Sjov i Vallensbæk,18 hullers bane,"Ja, gratis",2019,,https://fodboldgolf.dk/baner/vallensbaek-fodboldgolf/,,
Vandel fodboldgolf,https://fodboldgolf.dk/wp-content/uploads/2020/09/fodboldgolf-758x564.jpg,Flot 18 hullers bane,Tårnvej 8,,7184 Vandel,Sydjylland,Danmark,Udfordrende bane,18 hullers bane,"Ja, gratis",2008,,https://fodboldgolf.dk/baner/vandel-fodboldgolf/,,
Varde fodboldgolf,https://fodboldgolf.dk/wp-content/uploads/2020/10/varde-fodboldgolf-758x533.jpg,"Hos Varde Fodboldgolf finder du hele 3 velplejede 18 huls baner, altså 54 huller. Det dækker et areal på hele 120.000 m2/ 12 hektar.
Banernes længde ligger imellem 1400 og 1600 meter. De har derudover også haft verdensmesterskab i fodboldgolf to gange, i 2012 og 2017, sidstnævnte i samarbejde med Filskov fodboldgolf.",Armvangvej 14,,6800 Varde,Vestjylland,Danmark,Sjov i Varde,18 hullers bane,"Ja, gratis",2007,https://www.youtube.com/embed/4I86gW-xDRY?feature=oembed,https://fodboldgolf.dk/baner/varde-fodboldgolf/,,
Vejen fodboldgolf,https://fodboldgolf.dk/wp-content/uploads/2020/10/vejen-fodboldgolf.jpg,Spil fodboldgolf på en flot 18 hullers bane,Haderslevvej 7,,6630 Rødding,Sydjylland,Danmark,Flot 18 hullers,18 hullers bane,"Ja, gratis",2012,,https://fodboldgolf.dk/baner/vejen-fodboldgolf/,,
Vejle fodboldgolf,https://fodboldgolf.dk/wp-content/uploads/2020/09/fodboldgolf-758x564.jpg,Sjov 18 hullers bane,Lunden 2,,7182 Bredsten,Sydjylland,Danmark,Fodboldgolf på Jylland,18 hullers bane,"Ja, gratis",2010,,https://fodboldgolf.dk/baner/vejle-fodboldgolf/,http://vejlefodboldgolf.dk/,
Vendsyssel fodboldgolf,https://fodboldgolf.dk/wp-content/uploads/2020/10/vendsyssel-fodboldgolf-1-758x533.jpg,Flot 18 hullers bane i Jylland,Agerstedvej 5,,9340 Aså,Nordjylland,Danmark,Fodboldgolf i Jylland,18 hullers bane,"Ja, gratis",2011,https://www.youtube.com/embed/U43LgZxDYTE?feature=oembed,https://fodboldgolf.dk/baner/vendsyssel-fodboldgolf/,http://www.18spark.dk/,
Vestbjerg fodboldgolf,https://fodboldgolf.dk/wp-content/uploads/2020/10/vestbjerg-fodboldgolf-758x564.jpg,Spændende og sjov 18 hullers bane,Agdrupvej 10,,9380 Vestbjerg,Nordjylland,Danmark,Underholdende bane,18 hullers bane,"Ja, gratis",2014,https://www.youtube.com/embed/rJiDgB62GXg?feature=oembed,https://fodboldgolf.dk/baner/vestbjerg-fodboldgolf/,http://vestbjergfodboldgolf.com/,
Vesterhavets fodboldgolf,https://fodboldgolf.dk/wp-content/uploads/2020/09/fodboldgolf-758x564.jpg,Sjov 18 hullers bane,Lystlundvej 1,,6990 Ulfborg,Vestjylland,Danmark,Sjov bane ved Vesterhavet,18 hullers bane,"Ja, gratis",2013,,https://fodboldgolf.dk/baner/vesterhavets-fodboldgolf/,,
Vestfyns Fodboldgolf,https://fodboldgolf.dk/wp-content/uploads/2020/09/fodboldgolf-758x564.jpg,Du finder masser af udfordringer på denne sjove fodboldgolfbane uanset om du er øvede eller begynder. Der er 18 huller og der er masser af timers underholdning for voksne og børn.,Fåborgvej 143,,5631 Ebberup,Fyn,Danmark,Flot bane på Vestfyn,18 hullers bane,Ja - Gratis,2009,,https://fodboldgolf.dk/baner/vestfyns-fodboldgolf/,https://vestfyns-fodboldgolf.dk/,
Ørsted Ørredvand,https://fodboldgolf.dk/wp-content/uploads/2020/10/fodboldgolf-oersted-oerredvand-758x493.jpg,Måske Sjællands sværeste/sjoveste bane!,Åbakkevej 13,,4130 Viby SJ,Vestsjælland,Danmark,Sjov og svær bane,18 hullers bane,"Ja, gratis",2020,,https://fodboldgolf.dk/baner/fisk-golf/,,
